start=new Date('2023-04-25T00:00:00.000Z').valueOf();
sats=[{"GP_ID":"230698758","OBJECT_TYPE":"PAYLOAD","BSTAR":"0.00788530000000","NORAD_CAT_ID":"50188","EPHEMERIS_TYPE":"0","DECAY_DATE":null,"FILE":"3893330","TLE_LINE2":"2 50188  53.2169 269.7838 0001079 321.3182  38.7738 15.19989197 78280","OBJECT_ID":"2021-125AJ","REV_AT_EPOCH":"7828","APOAPSIS":"506.618","REF_FRAME":"TEME","MEAN_MOTION_DDOT":"0.0000000000000","COUNTRY_CODE":"US","TLE_LINE1":"1 50188U 21125AJ  23114.40920659  .00175792  00000-0  78853-2 0  9993","ECCENTRICITY":"0.00010790","MEAN_ANOMALY":"38.7738","LAUNCH_DATE":"2021-12-18","CLASSIFICATION_TYPE":"U","SEMIMAJOR_AXIS":"6884.010","ELEMENT_SET_NO":"999","ARG_OF_PERICENTER":"321.3182","PERIAPSIS":"505.132","MEAN_ELEMENT_THEORY":"SGP4","TIME_SYSTEM":"UTC","CENTER_NAME":"EARTH","RA_OF_ASC_NODE":"269.7838","SITE":"AFWTR","EPOCH":"2023-04-24T09:49:15.449376","MEAN_MOTION_DOT":"0.00175792","MEAN_MOTION":"15.19989197","OBJECT_NAME":"STARLINK-3275","INCLINATION":"53.2169","RCS_SIZE":"LARGE","PERIOD":"94.738"},{"CLASSIFICATION_TYPE":"U","LAUNCH_DATE":"2021-12-18","ELEMENT_SET_NO":"999","SEMIMAJOR_AXIS":"6917.784","ECCENTRICITY":"0.00011700","TLE_LINE1":"1 50189U 21125AK  23114.75069187  .00008917  00000-0  57713-3 0  9999","COUNTRY_CODE":"US","MEAN_ANOMALY":"272.7836","APOAPSIS":"540.459","REF_FRAME":"TEME","OBJECT_ID":"2021-125AK","REV_AT_EPOCH":"7761","TLE_LINE2":"2 50189  53.2170 282.4835 0001170  87.3290 272.7836 15.08871448 77615","MEAN_MOTION_DDOT":"0.0000000000000","BSTAR":"0.00057713000000","OBJECT_TYPE":"PAYLOAD","NORAD_CAT_ID":"50189","EPHEMERIS_TYPE":"0","GP_ID":"230706666","FILE":"3893522","DECAY_DATE":null,"RCS_SIZE":"LARGE","PERIOD":"95.436","MEAN_MOTION_DOT":"0.00008917","EPOCH":"2023-04-24T18:00:59.777568","OBJECT_NAME":"STARLINK-3276","INCLINATION":"53.2170","MEAN_MOTION":"15.08871448","CENTER_NAME":"EARTH","TIME_SYSTEM":"UTC","SITE":"AFWTR","RA_OF_ASC_NODE":"282.4835","PERIAPSIS":"538.840","MEAN_ELEMENT_THEORY":"SGP4","ARG_OF_PERICENTER":"87.3290"},{"LAUNCH_DATE":"2021-12-18","CLASSIFICATION_TYPE":"U","ELEMENT_SET_NO":"999","SEMIMAJOR_AXIS":"6917.875","ECCENTRICITY":"0.00019050","TLE_LINE1":"1 50190U 21125AL  23113.93739435  .00007259  00000-0  47369-3 0  9994","COUNTRY_CODE":"US","MEAN_ANOMALY":"303.1485","REF_FRAME":"TEME","APOAPSIS":"541.058","OBJECT_ID":"2021-125AL","REV_AT_EPOCH":"7762","TLE_LINE2":"2 50190  53.2165 276.1276 0001905  56.9690 303.1485 15.08841711 77622","MEAN_MOTION_DDOT":"0.0000000000000","OBJECT_TYPE":"PAYLOAD","BSTAR":"0.00047369000000","NORAD_CAT_ID":"50190","EPHEMERIS_TYPE":"0","GP_ID":"230707170","FILE":"3893522","DECAY_DATE":null,"RCS_SIZE":"LARGE","PERIOD":"95.437","MEAN_MOTION_DOT":"0.00007259","EPOCH":"2023-04-23T22:29:50.871840","INCLINATION":"53.2165","OBJECT_NAME":"STARLINK-3268","MEAN_MOTION":"15.08841711","CENTER_NAME":"EARTH","TIME_SYSTEM":"UTC","SITE":"AFWTR","RA_OF_ASC_NODE":"276.1276","ARG_OF_PERICENTER":"56.9690","PERIAPSIS":"538.422","MEAN_ELEMENT_THEORY":"SGP4"},{"RCS_SIZE":"LARGE","PERIOD":"95.435","EPOCH":"2023-04-24T11:26:09.708864","MEAN_MOTION_DOT":"0.00013948","INCLINATION":"53.2155","OBJECT_NAME":"STARLINK-3273","MEAN_MOTION":"15.08875457","TIME_SYSTEM":"UTC","CENTER_NAME":"EARTH","RA_OF_ASC_NODE":"293.7121","SITE":"AFWTR","MEAN_ELEMENT_THEORY":"SGP4","PERIAPSIS":"538.897","ARG_OF_PERICENTER":"82.6335","LAUNCH_DATE":"2021-12-18","CLASSIFICATION_TYPE":"U","SEMIMAJOR_AXIS":"6917.772","ELEMENT_SET_NO":"999","COUNTRY_CODE":"US","ECCENTRICITY":"0.00010700","TLE_LINE1":"1 50191U 21125AM  23114.47650126  .00013948  00000-0  89183-3 0  9996","MEAN_ANOMALY":"277.4778","REV_AT_EPOCH":"7790","OBJECT_ID":"2021-125AM","TLE_LINE2":"2 50191  53.2155 293.7121 0001070  82.6335 277.4778 15.08875457 77904","APOAPSIS":"540.377","REF_FRAME":"TEME","MEAN_MOTION_DDOT":"0.0000000000000","GP_ID":"230698507","OBJECT_TYPE":"PAYLOAD","NORAD_CAT_ID":"50191","BSTAR":"0.00089183000000","EPHEMERIS_TYPE":"0","FILE":"3893330","DECAY_DATE":null},{"OBJECT_TYPE":"PAYLOAD","NORAD_CAT_ID":"50192","BSTAR":"0.00222330000000","EPHEMERIS_TYPE":"0","GP_ID":"230698258","FILE":"3893330","DECAY_DATE":null,"APOAPSIS":"540.265","REF_FRAME":"TEME","TLE_LINE2":"2 50192  53.2163 274.6569 0000981  63.3941 296.7151 15.08891921 78158","OBJECT_ID":"2021-125AN","REV_AT_EPOCH":"7815","MEAN_MOTION_DDOT":"0.0000000000000","TLE_LINE1":"1 50192U 21125AN  23114.26490895  .00035324  00000-0  22233-2 0  9993","ECCENTRICITY":"0.00009810","COUNTRY_CODE":"US","MEAN_ANOMALY":"296.7151","LAUNCH_DATE":"2021-12-18","CLASSIFICATION_TYPE":"U","ELEMENT_SET_NO":"999","SEMIMAJOR_AXIS":"6917.722","ARG_OF_PERICENTER":"63.3941","PERIAPSIS":"538.908","MEAN_ELEMENT_THEORY":"SGP4","CENTER_NAME":"EARTH","TIME_SYSTEM":"UTC","SITE":"AFWTR","RA_OF_ASC_NODE":"274.6569","MEAN_MOTION_DOT":"0.00035324","EPOCH":"2023-04-24T06:21:28.133280","MEAN_MOTION":"15.08891921","INCLINATION":"53.2163","OBJECT_NAME":"STARLINK-3259","RCS_SIZE":"LARGE","PERIOD":"95.434"},{"LAUNCH_DATE":"2021-12-18","CLASSIFICATION_TYPE":"U","SEMIMAJOR_AXIS":"6917.820","ELEMENT_SET_NO":"999","COUNTRY_CODE":"US","ECCENTRICITY":"0.00005140","TLE_LINE1":"1 50193U 21125AP  23114.73961413  .00004016  00000-0  27009-3 0  9996","MEAN_ANOMALY":"125.8322","OBJECT_ID":"2021-125AP","REV_AT_EPOCH":"7774","TLE_LINE2":"2 50193  53.2174 272.5280 0000514 234.2622 125.8322 15.08859718 77749","REF_FRAME":"TEME","APOAPSIS":"540.041","MEAN_MOTION_DDOT":"0.0000000000000","GP_ID":"230707162","NORAD_CAT_ID":"50193","OBJECT_TYPE":"PAYLOAD","BSTAR":"0.00027009000000","EPHEMERIS_TYPE":"0","FILE":"3893521","DECAY_DATE":null,"RCS_SIZE":"LARGE","PERIOD":"95.436","EPOCH":"2023-04-24T17:45:02.660832","MEAN_MOTION_DOT":"0.00004016","INCLINATION":"53.2174","OBJECT_NAME":"STARLINK-3261","MEAN_MOTION":"15.08859718","TIME_SYSTEM":"UTC","CENTER_NAME":"EARTH","RA_OF_ASC_NODE":"272.5280","SITE":"AFWTR","ARG_OF_PERICENTER":"234.2622","PERIAPSIS":"539.330","MEAN_ELEMENT_THEORY":"SGP4"},{"FILE":"3893522","DECAY_DATE":null,"NORAD_CAT_ID":"50194","OBJECT_TYPE":"PAYLOAD","BSTAR":"0.00322280000000","EPHEMERIS_TYPE":"0","GP_ID":"230707165","MEAN_MOTION_DDOT":"0.0000000000000","REF_FRAME":"TEME","APOAPSIS":"540.228","REV_AT_EPOCH":"7774","OBJECT_ID":"2021-125AQ","TLE_LINE2":"2 50194  53.2163 272.5976 0001057  78.1599 281.9512 15.08921229 77743","MEAN_ANOMALY":"281.9512","ECCENTRICITY":"0.00010570","TLE_LINE1":"1 50194U 21125AQ  23114.72585060  .00051492  00000-0  32228-2 0  9994","COUNTRY_CODE":"US","ELEMENT_SET_NO":"999","SEMIMAJOR_AXIS":"6917.632","LAUNCH_DATE":"2021-12-18","CLASSIFICATION_TYPE":"U","MEAN_ELEMENT_THEORY":"SGP4","PERIAPSIS":"538.766","ARG_OF_PERICENTER":"78.1599","SITE":"AFWTR","RA_OF_ASC_NODE":"272.5976","CENTER_NAME":"EARTH","TIME_SYSTEM":"UTC","OBJECT_NAME":"STARLINK-3269","INCLINATION":"53.2163","MEAN_MOTION":"15.08921229","MEAN_MOTION_DOT":"0.00051492","EPOCH":"2023-04-24T17:25:13.491840","PERIOD":"95.432","RCS_SIZE":"LARGE"},{"ECCENTRICITY":"0.00003720","TLE_LINE1":"1 50195U 21125AR  23114.73593343  .00048011  00000-0  30085-2 0  9991","COUNTRY_CODE":"US","MEAN_ANOMALY":"274.2156","LAUNCH_DATE":"2021-12-18","CLASSIFICATION_TYPE":"U","ELEMENT_SET_NO":"999","SEMIMAJOR_AXIS":"6917.667","BSTAR":"0.00300850000000","OBJECT_TYPE":"PAYLOAD","NORAD_CAT_ID":"50195","EPHEMERIS_TYPE":"0","GP_ID":"230706672","DECAY_DATE":null,"FILE":"3893522","APOAPSIS":"539.789","REF_FRAME":"TEME","REV_AT_EPOCH":"7774","OBJECT_ID":"2021-125AR","TLE_LINE2":"2 50195  53.2164 272.5458 0000372  85.8879 274.2156 15.08909967 77749","MEAN_MOTION_DDOT":"0.0000000000000","MEAN_MOTION_DOT":"0.00048011","EPOCH":"2023-04-24T17:39:44.648352","OBJECT_NAME":"STARLINK-3266","INCLINATION":"53.2164","MEAN_MOTION":"15.08909967","RCS_SIZE":"LARGE","PERIOD":"95.433","ARG_OF_PERICENTER":"85.8879","PERIAPSIS":"539.274","MEAN_ELEMENT_THEORY":"SGP4","CENTER_NAME":"EARTH","TIME_SYSTEM":"UTC","SITE":"AFWTR","RA_OF_ASC_NODE":"272.5458"},{"LAUNCH_DATE":"2021-12-18","CLASSIFICATION_TYPE":"U","ELEMENT_SET_NO":"999","SEMIMAJOR_AXIS":"6917.710","TLE_LINE1":"1 50196U 21125AS  23114.72217665  .00027174  00000-0  17163-2 0  9990","ECCENTRICITY":"0.00014110","COUNTRY_CODE":"US","MEAN_ANOMALY":"270.6199","APOAPSIS":"540.551","REF_FRAME":"TEME","TLE_LINE2":"2 50196  53.2168 272.6543 0001411  89.4955 270.6199 15.08895749 77749","OBJECT_ID":"2021-125AS","REV_AT_EPOCH":"7774","MEAN_MOTION_DDOT":"0.0000000000000","NORAD_CAT_ID":"50196","OBJECT_TYPE":"PAYLOAD","BSTAR":"0.00171630000000","EPHEMERIS_TYPE":"0","GP_ID":"230707168","DECAY_DATE":null,"FILE":"3893522","RCS_SIZE":"LARGE","PERIOD":"95.434","MEAN_MOTION_DOT":"0.00027174","EPOCH":"2023-04-24T17:19:56.062560","MEAN_MOTION":"15.08895749","OBJECT_NAME":"STARLINK-3263","INCLINATION":"53.2168","CENTER_NAME":"EARTH","TIME_SYSTEM":"UTC","SITE":"AFWTR","RA_OF_ASC_NODE":"272.6543","MEAN_ELEMENT_THEORY":"SGP4","PERIAPSIS":"538.599","ARG_OF_PERICENTER":"89.4955"},{"MEAN_MOTION":"15.08909326","OBJECT_NAME":"STARLINK-3267","INCLINATION":"53.2162","EPOCH":"2023-04-24T17:18:32.748768","MEAN_MOTION_DOT":"0.00047134","PERIOD":"95.433","RCS_SIZE":"LARGE","MEAN_ELEMENT_THEORY":"SGP4","PERIAPSIS":"538.536","ARG_OF_PERICENTER":"83.3174","RA_OF_ASC_NODE":"272.6066","SITE":"AFWTR","TIME_SYSTEM":"UTC","CENTER_NAME":"EARTH","MEAN_ANOMALY":"276.7982","COUNTRY_CODE":"US","TLE_LINE1":"1 50197U 21125AT  23114.72121237  .00047134  00000-0  29543-2 0  9993","ECCENTRICITY":"0.00014420","SEMIMAJOR_AXIS":"6917.668","ELEMENT_SET_NO":"999","LAUNCH_DATE":"2021-12-18","CLASSIFICATION_TYPE":"U","DECAY_DATE":null,"FILE":"3893522","GP_ID":"230706670","OBJECT_TYPE":"PAYLOAD","EPHEMERIS_TYPE":"0","BSTAR":"0.00295430000000","NORAD_CAT_ID":"50197","MEAN_MOTION_DDOT":"0.0000000000000","TLE_LINE2":"2 50197  53.2162 272.6066 0001442  83.3174 276.7982 15.08909326 77748","REV_AT_EPOCH":"7774","OBJECT_ID":"2021-125AT","APOAPSIS":"540.531","REF_FRAME":"TEME"}];
